[{"OBJECT_NAME":"GENMAT-1","OBJECT_ID":"2023-174W","EPOCH":"2026-03-09T18:03:23.351040","MEAN_MOTION":15.32594666,"ECCENTRICITY":0.00074416,"INCLINATION":97.3728,"RA_OF_ASC_NODE":146.8236,"ARG_OF_PERICENTER":169.2515,"MEAN_ANOMALY":190.8888,"EPHEMERIS_TYPE":0,"CLASSIFICATION_TYPE":"U","NORAD_CAT_ID":58276,"ELEMENT_SET_NO":999,"REV_AT_EPOCH":12973,"BSTAR":0.00042157222,"MEAN_MOTION_DOT":0.0001321,"MEAN_MOTION_DDOT":0},{"OBJECT_NAME":"STARLINK-35192","OBJECT_ID":"2025-225Z","EPOCH":"2026-03-09T11:47:37.546656","MEAN_MOTION":15.30184746,"ECCENTRICITY":0.00012311,"INCLINATION":53.1576,"RA_OF_ASC_NODE":166.8921,"ARG_OF_PERICENTER":72.4318,"MEAN_ANOMALY":287.6817,"EPHEMERIS_TYPE":0,"CLASSIFICATION_TYPE":"U","NORAD_CAT_ID":65933,"ELEMENT_SET_NO":999,"REV_AT_EPOCH":2437,"BSTAR":0.00074029022,"MEAN_MOTION_DOT":0.0002162,"MEAN_MOTION_DDOT":0}]
